STARLINK-2571           
1 48401U 21038BA  26052.27628830  .00001504  00000+0  64442-4 0  9995
2 48401  53.1610  48.9487 0001349  89.8970 270.2185 15.29361111264921
STARLINK-2593           
1 48404U 21038BD  26052.49128361  .00001494  00000+0  62543-4 0  9994
2 48404  53.1595  47.9311 0001574  79.3550 280.7628 15.30204315264965
STARLINK-2570           
1 48405U 21038BE  26052.37438270 -.00000212  00000+0  49727-5 0  9993
2 48405  53.1613  48.6496 0001548 101.3874 258.7301 15.30191585264939
STARLINK-2568           
1 48406U 21038BF  26052.50983657  .00001555  00000+0  64633-4 0  9995
2 48406  53.1610  50.7045 0001665 111.2982 248.8197 15.30201650264928
STARLINK-2592           
1 48408U 21038BH  26052.25431604 -.00000956  00000+0 -20154-4 0  9995
2 48408  53.1596  49.4203 0001460 110.0888 250.0270 15.30203687264917
STARLINK-2563           
1 48410U 21038BK  26052.09334076 -.00000266  00000+0  10650-5 0  9999
2 48410  53.0551  11.1249 0001262  89.6398 270.4736 15.06400684265444
STARLINK-2505           
1 48411U 21038BL  26052.24307406  .00002002  00000+0  15319-3 0  9998
2 48411  53.0556   5.4519 0001420  93.0376 267.0775 15.06409747265531
STARLINK-2581           
1 48412U 21038BM  26052.26156653  .00000151  00000+0  29040-4 0  9997
2 48412  53.0557   5.7990 0001460  96.2796 263.8359 15.06396985265535
STARLINK-2461           
1 48428U 21040A   26052.52143981  .00000387  00000+0  25184-4 0  9992
2 48428  53.1604 253.8293 0001283  94.9455 265.1692 15.30192086264209
STARLINK-2700           
1 48431U 21040D   26052.61625795  .00001515  00000+0  12062-3 0  9998
2 48431  53.0558 223.7750 0001499  89.4715 270.6446 15.06399160264620
STARLINK-2680           
1 48432U 21040E   26052.59743895  .00000059  00000+0  22878-4 0  9997
2 48432  53.0557 219.2548 0001237  83.5055 276.6075 15.06399319264683
STARLINK-2699           
1 48433U 21040F   26052.60987573  .00001331  00000+0  10821-3 0  9991
2 48433  53.0548 224.0826 0001160 104.3527 255.7590 15.06396756264613
STARLINK-2692           
1 48434U 21040G   26052.50911880  .00004012  00000+0  15128-3 0  9993
2 48434  53.1562 227.8163 0000949  80.3822 279.7285 15.29356096264560
STARLINK-2633           
1 48435U 21040H   26052.51443974  .00010794  00000+0  74147-3 0  9999
2 48435  53.0561 239.2416 0002050  82.6838 277.4384 15.06446873264398
STARLINK-2639           
1 48436U 21040J   26052.58335648  .00011169  00000+0  39887-3 0  9994
2 48436  53.1578 252.9094 0001623  96.8226 172.8589 15.29349098  5782
STARLINK-2642           
1 48437U 21040K   26052.62089578 -.00000803  00000+0 -35013-4 0  9991
2 48437  53.0543 263.7528 0001458  96.3412 263.7743 15.06400478264069
