[{"OBJECT_NAME":"STARLINK-2571","OBJECT_ID":"2021-038BA","EPOCH":"2026-02-21T06:37:51.309120","MEAN_MOTION":15.29361111,"ECCENTRICITY":0.0001349,"INCLINATION":53.161,"RA_OF_ASC_NODE":48.9487,"ARG_OF_PERICENTER":89.897,"MEAN_ANOMALY":270.2185,"EPHEMERIS_TYPE":0,"CLASSIFICATION_TYPE":"U","NORAD_CAT_ID":48401,"ELEMENT_SET_NO":999,"REV_AT_EPOCH":26492,"BSTAR":6.4442e-5,"MEAN_MOTION_DOT":1.504e-5,"MEAN_MOTION_DDOT":0},{"OBJECT_NAME":"STARLINK-2593","OBJECT_ID":"2021-038BD","EPOCH":"2026-02-21T11:47:26.903904","MEAN_MOTION":15.30204315,"ECCENTRICITY":0.00015749,"INCLINATION":53.1595,"RA_OF_ASC_NODE":47.9311,"ARG_OF_PERICENTER":79.355,"MEAN_ANOMALY":280.7628,"EPHEMERIS_TYPE":0,"CLASSIFICATION_TYPE":"U","NORAD_CAT_ID":48404,"ELEMENT_SET_NO":999,"REV_AT_EPOCH":26496,"BSTAR":6.2543071e-5,"MEAN_MOTION_DOT":1.494e-5,"MEAN_MOTION_DDOT":0},{"OBJECT_NAME":"STARLINK-2570","OBJECT_ID":"2021-038BE","EPOCH":"2026-02-21T08:59:06.665280","MEAN_MOTION":15.30191585,"ECCENTRICITY":0.00015486,"INCLINATION":53.1613,"RA_OF_ASC_NODE":48.6496,"ARG_OF_PERICENTER":101.3874,"MEAN_ANOMALY":258.7301,"EPHEMERIS_TYPE":0,"CLASSIFICATION_TYPE":"U","NORAD_CAT_ID":48405,"ELEMENT_SET_NO":999,"REV_AT_EPOCH":26493,"BSTAR":4.97271e-6,"MEAN_MOTION_DOT":-2.12e-6,"MEAN_MOTION_DDOT":0},{"OBJECT_NAME":"STARLINK-2568","OBJECT_ID":"2021-038BF","EPOCH":"2026-02-21T12:14:09.879648","MEAN_MOTION":15.3020165,"ECCENTRICITY":0.00016655,"INCLINATION":53.161,"RA_OF_ASC_NODE":50.7045,"ARG_OF_PERICENTER":111.2982,"MEAN_ANOMALY":248.8197,"EPHEMERIS_TYPE":0,"CLASSIFICATION_TYPE":"U","NORAD_CAT_ID":48406,"ELEMENT_SET_NO":999,"REV_AT_EPOCH":26492,"BSTAR":6.4632627e-5,"MEAN_MOTION_DOT":1.555e-5,"MEAN_MOTION_DDOT":0},{"OBJECT_NAME":"STARLINK-2592","OBJECT_ID":"2021-038BH","EPOCH":"2026-02-21T06:06:12.905856","MEAN_MOTION":15.30203687,"ECCENTRICITY":0.000146,"INCLINATION":53.1596,"RA_OF_ASC_NODE":49.4203,"ARG_OF_PERICENTER":110.0888,"MEAN_ANOMALY":250.027,"EPHEMERIS_TYPE":0,"CLASSIFICATION_TYPE":"U","NORAD_CAT_ID":48408,"ELEMENT_SET_NO":999,"REV_AT_EPOCH":26491,"BSTAR":-2.0154e-5,"MEAN_MOTION_DOT":-9.56e-6,"MEAN_MOTION_DDOT":0},{"OBJECT_NAME":"STARLINK-2563","OBJECT_ID":"2021-038BK","EPOCH":"2026-02-21T02:14:24.641664","MEAN_MOTION":15.06400684,"ECCENTRICITY":0.00012623,"INCLINATION":53.0551,"RA_OF_ASC_NODE":11.1249,"ARG_OF_PERICENTER":89.6398,"MEAN_ANOMALY":270.4736,"EPHEMERIS_TYPE":0,"CLASSIFICATION_TYPE":"U","NORAD_CAT_ID":48410,"ELEMENT_SET_NO":999,"REV_AT_EPOCH":26544,"BSTAR":1.064977e-6,"MEAN_MOTION_DOT":-2.66e-6,"MEAN_MOTION_DDOT":0},{"OBJECT_NAME":"STARLINK-2505","OBJECT_ID":"2021-038BL","EPOCH":"2026-02-21T05:50:01.598784","MEAN_MOTION":15.06409747,"ECCENTRICITY":0.000142,"INCLINATION":53.0556,"RA_OF_ASC_NODE":5.4519,"ARG_OF_PERICENTER":93.0376,"MEAN_ANOMALY":267.0775,"EPHEMERIS_TYPE":0,"CLASSIFICATION_TYPE":"U","NORAD_CAT_ID":48411,"ELEMENT_SET_NO":999,"REV_AT_EPOCH":26553,"BSTAR":0.00015319,"MEAN_MOTION_DOT":2.002e-5,"MEAN_MOTION_DDOT":0},{"OBJECT_NAME":"STARLINK-2581","OBJECT_ID":"2021-038BM","EPOCH":"2026-02-21T06:16:39.348192","MEAN_MOTION":15.06396985,"ECCENTRICITY":0.000146,"INCLINATION":53.0557,"RA_OF_ASC_NODE":5.799,"ARG_OF_PERICENTER":96.2796,"MEAN_ANOMALY":263.8359,"EPHEMERIS_TYPE":0,"CLASSIFICATION_TYPE":"U","NORAD_CAT_ID":48412,"ELEMENT_SET_NO":999,"REV_AT_EPOCH":26553,"BSTAR":2.904e-5,"MEAN_MOTION_DOT":1.51e-6,"MEAN_MOTION_DDOT":0},{"OBJECT_NAME":"STARLINK-2461","OBJECT_ID":"2021-040A","EPOCH":"2026-02-21T12:30:52.399584","MEAN_MOTION":15.30192086,"ECCENTRICITY":0.00012837,"INCLINATION":53.1604,"RA_OF_ASC_NODE":253.8293,"ARG_OF_PERICENTER":94.9455,"MEAN_ANOMALY":265.1692,"EPHEMERIS_TYPE":0,"CLASSIFICATION_TYPE":"U","NORAD_CAT_ID":48428,"ELEMENT_SET_NO":999,"REV_AT_EPOCH":26420,"BSTAR":2.5183642e-5,"MEAN_MOTION_DOT":3.87e-6,"MEAN_MOTION_DDOT":0},{"OBJECT_NAME":"STARLINK-2700","OBJECT_ID":"2021-040D","EPOCH":"2026-02-21T14:47:24.686880","MEAN_MOTION":15.0639916,"ECCENTRICITY":0.00014992,"INCLINATION":53.0558,"RA_OF_ASC_NODE":223.775,"ARG_OF_PERICENTER":89.4715,"MEAN_ANOMALY":270.6446,"EPHEMERIS_TYPE":0,"CLASSIFICATION_TYPE":"U","NORAD_CAT_ID":48431,"ELEMENT_SET_NO":999,"REV_AT_EPOCH":26462,"BSTAR":0.00012061759,"MEAN_MOTION_DOT":1.515e-5,"MEAN_MOTION_DDOT":0},{"OBJECT_NAME":"STARLINK-2680","OBJECT_ID":"2021-040E","EPOCH":"2026-02-21T14:20:18.725280","MEAN_MOTION":15.06399319,"ECCENTRICITY":0.00012377,"INCLINATION":53.0557,"RA_OF_ASC_NODE":219.2548,"ARG_OF_PERICENTER":83.5055,"MEAN_ANOMALY":276.6075,"EPHEMERIS_TYPE":0,"CLASSIFICATION_TYPE":"U","NORAD_CAT_ID":48432,"ELEMENT_SET_NO":999,"REV_AT_EPOCH":26468,"BSTAR":2.2877916e-5,"MEAN_MOTION_DOT":5.9e-7,"MEAN_MOTION_DDOT":0},{"OBJECT_NAME":"STARLINK-2699","OBJECT_ID":"2021-040F","EPOCH":"2026-02-21T14:38:13.263072","MEAN_MOTION":15.06396756,"ECCENTRICITY":0.000116,"INCLINATION":53.0548,"RA_OF_ASC_NODE":224.0826,"ARG_OF_PERICENTER":104.3527,"MEAN_ANOMALY":255.759,"EPHEMERIS_TYPE":0,"CLASSIFICATION_TYPE":"U","NORAD_CAT_ID":48433,"ELEMENT_SET_NO":999,"REV_AT_EPOCH":26461,"BSTAR":0.00010821035,"MEAN_MOTION_DOT":1.331e-5,"MEAN_MOTION_DDOT":0},{"OBJECT_NAME":"STARLINK-2692","OBJECT_ID":"2021-040G","EPOCH":"2026-02-21T12:13:07.864320","MEAN_MOTION":15.29356096,"ECCENTRICITY":9.492e-5,"INCLINATION":53.1562,"RA_OF_ASC_NODE":227.8163,"ARG_OF_PERICENTER":80.3822,"MEAN_ANOMALY":279.7285,"EPHEMERIS_TYPE":0,"CLASSIFICATION_TYPE":"U","NORAD_CAT_ID":48434,"ELEMENT_SET_NO":999,"REV_AT_EPOCH":26456,"BSTAR":0.00015128348,"MEAN_MOTION_DOT":4.012e-5,"MEAN_MOTION_DDOT":0},{"OBJECT_NAME":"STARLINK-2633","OBJECT_ID":"2021-040H","EPOCH":"2026-02-21T12:20:47.593536","MEAN_MOTION":15.06446873,"ECCENTRICITY":0.00020501,"INCLINATION":53.0561,"RA_OF_ASC_NODE":239.2416,"ARG_OF_PERICENTER":82.6838,"MEAN_ANOMALY":277.4384,"EPHEMERIS_TYPE":0,"CLASSIFICATION_TYPE":"U","NORAD_CAT_ID":48435,"ELEMENT_SET_NO":999,"REV_AT_EPOCH":26439,"BSTAR":0.00074147364,"MEAN_MOTION_DOT":0.00010794,"MEAN_MOTION_DDOT":0},{"OBJECT_NAME":"STARLINK-2639","OBJECT_ID":"2021-040J","EPOCH":"2026-02-21T14:00:01.999872","MEAN_MOTION":15.29349098,"ECCENTRICITY":0.00016234,"INCLINATION":53.1578,"RA_OF_ASC_NODE":252.9094,"ARG_OF_PERICENTER":96.8226,"MEAN_ANOMALY":172.8589,"EPHEMERIS_TYPE":0,"CLASSIFICATION_TYPE":"U","NORAD_CAT_ID":48436,"ELEMENT_SET_NO":999,"REV_AT_EPOCH":578,"BSTAR":0.00039886963,"MEAN_MOTION_DOT":0.00011169,"MEAN_MOTION_DDOT":0},{"OBJECT_NAME":"STARLINK-2642","OBJECT_ID":"2021-040K","EPOCH":"2026-02-21T14:54:05.395392","MEAN_MOTION":15.06400478,"ECCENTRICITY":0.0001458,"INCLINATION":53.0543,"RA_OF_ASC_NODE":263.7528,"ARG_OF_PERICENTER":96.3412,"MEAN_ANOMALY":263.7743,"EPHEMERIS_TYPE":0,"CLASSIFICATION_TYPE":"U","NORAD_CAT_ID":48437,"ELEMENT_SET_NO":999,"REV_AT_EPOCH":26406,"BSTAR":-3.5012683e-5,"MEAN_MOTION_DOT":-8.03e-6,"MEAN_MOTION_DDOT":0}]
